{
  "type": "FeatureCollection",
  "features": [
    {
      "type": "Feature",
      "properties": {
        "norad_id": 55973,
        "name": "TIANMU-1 03",
        "group": "weather",
        "lat": -31.495309429496572,
        "lon": 144.69505005864752,
        "alt_km": 452.259080064744,
        "timestamp": "2025-12-03T15:48:02.748525+00:00",
        "meta_object_name": "TIANMU-1 03",
        "meta_object_id": "2023-039A",
        "meta_epoch": "2025-12-03T08:08:37.710240",
        "meta_mean_motion": 15.40491993,
        "meta_eccentricity": 0.00045606,
        "meta_inclination": 97.5101,
        "meta_ra_of_asc_node": 139.7312,
        "meta_arg_of_pericenter": 88.1775,
        "meta_mean_anomaly": 271.9993,
        "meta_ephemeris_type": 0,
        "meta_classification_type": "U",
        "meta_norad_cat_id": 55973,
        "meta_element_set_no": 999,
        "meta_rev_at_epoch": 15061,
        "meta_bstar": 0.00048124963,
        "meta_mean_motion_dot": 0.00019459,
        "meta_mean_motion_ddot": 0,
        "tle_line1": "1 55973U 23039A   25337.33932535  .00019459  00000+0  48125-3 0  9999",
        "tle_line2": "2 55973  97.5101 139.7312 0004560  88.1775 271.9993 15.40491993150619"
      },
      "geometry": {
        "type": "Point",
        "coordinates": [
          144.69505005864752,
          -31.495309429496572
        ]
      }
    },
    {
      "type": "Feature",
      "properties": {
        "norad_id": 55974,
        "name": "TIANMU-1 04",
        "group": "weather",
        "lat": 69.98697153419612,
        "lon": 118.0385960156437,
        "alt_km": 433.39102832435765,
        "timestamp": "2025-12-03T15:48:02.748535+00:00",
        "meta_object_name": "TIANMU-1 04",
        "meta_object_id": "2023-039B",
        "meta_epoch": "2025-12-03T09:15:28.056096",
        "meta_mean_motion": 15.40824154,
        "meta_eccentricity": 0.00052285,
        "meta_inclination": 97.5032,
        "meta_ra_of_asc_node": 138.9738,
        "meta_arg_of_pericenter": 84.1569,
        "meta_mean_anomaly": 276.0273,
        "meta_ephemeris_type": 0,
        "meta_classification_type": "U",
        "meta_norad_cat_id": 55974,
        "meta_element_set_no": 999,
        "meta_rev_at_epoch": 15062,
        "meta_bstar": 0.00049174191,
        "meta_mean_motion_dot": 0.00020108,
        "meta_mean_motion_ddot": 0,
        "tle_line1": "1 55974U 23039B   25337.38574139  .00020108  00000+0  49174-3 0  9995",
        "tle_line2": "2 55974  97.5032 138.9738 0005228  84.1569 276.0273 15.40824154150622"
      },
      "geometry": {
        "type": "Point",
        "coordinates": [
          118.0385960156437,
          69.98697153419612
        ]
      }
    },
    {
      "type": "Feature",
      "properties": {
        "norad_id": 55975,
        "name": "TIANMU-1 05",
        "group": "weather",
        "lat": 63.343261918354656,
        "lon": -25.022824564602235,
        "alt_km": 435.70965545300896,
        "timestamp": "2025-12-03T15:48:02.748544+00:00",
        "meta_object_name": "TIANMU-1 05",
        "meta_object_id": "2023-039C",
        "meta_epoch": "2025-12-03T09:03:53.919360",
        "meta_mean_motion": 15.4045236,
        "meta_eccentricity": 0.00043222,
        "meta_inclination": 97.5079,
        "meta_ra_of_asc_node": 139.4575,
        "meta_arg_of_pericenter": 104.7047,
        "meta_mean_anomaly": 255.4678,
        "meta_ephemeris_type": 0,
        "meta_classification_type": "U",
        "meta_norad_cat_id": 55975,
        "meta_element_set_no": 999,
        "meta_rev_at_epoch": 15060,
        "meta_bstar": 0.00048171526,
        "meta_mean_motion_dot": 0.00019451,
        "meta_mean_motion_ddot": 0,
        "tle_line1": "1 55975U 23039C   25337.37770740  .00019451  00000+0  48172-3 0  9997",
        "tle_line2": "2 55975  97.5079 139.4575 0004322 104.7047 255.4678 15.40452360150607"
      },
      "geometry": {
        "type": "Point",
        "coordinates": [
          -25.022824564602235,
          63.343261918354656
        ]
      }
    },
    {
      "type": "Feature",
      "properties": {
        "norad_id": 55976,
        "name": "TIANMU-1 06",
        "group": "weather",
        "lat": 56.806012325929444,
        "lon": 128.57153574909938,
        "alt_km": 435.7116391525551,
        "timestamp": "2025-12-03T15:48:02.748553+00:00",
        "meta_object_name": "TIANMU-1 06",
        "meta_object_id": "2023-039D",
        "meta_epoch": "2025-12-03T09:19:03.440064",
        "meta_mean_motion": 15.40877392,
        "meta_eccentricity": 0.00046605,
        "meta_inclination": 97.509,
        "meta_ra_of_asc_node": 139.9257,
        "meta_arg_of_pericenter": 100.3506,
        "meta_mean_anomaly": 259.8265,
        "meta_ephemeris_type": 0,
        "meta_classification_type": "U",
        "meta_norad_cat_id": 55976,
        "meta_element_set_no": 999,
        "meta_rev_at_epoch": 15062,
        "meta_bstar": 0.00049378386,
        "meta_mean_motion_dot": 0.00020226,
        "meta_mean_motion_ddot": 0,
        "tle_line1": "1 55976U 23039D   25337.38823426  .00020226  00000+0  49378-3 0  9990",
        "tle_line2": "2 55976  97.5090 139.9257 0004660 100.3506 259.8265 15.40877392150628"
      },
      "geometry": {
        "type": "Point",
        "coordinates": [
          128.57153574909938,
          56.806012325929444
        ]
      }
    },
    {
      "type": "Feature",
      "properties": {
        "norad_id": 56232,
        "name": "FENGYUN 3G",
        "group": "weather",
        "lat": 21.44191485736138,
        "lon": -66.45216337396248,
        "alt_km": 404.4346528192855,
        "timestamp": "2025-12-03T15:48:02.748562+00:00",
        "meta_object_name": "FENGYUN 3G",
        "meta_object_id": "2023-055A",
        "meta_epoch": "2025-12-03T07:57:22.826880",
        "meta_mean_motion": 15.52770913,
        "meta_eccentricity": 0.00092395,
        "meta_inclination": 49.9946,
        "meta_ra_of_asc_node": 275.9737,
        "meta_arg_of_pericenter": 103.1563,
        "meta_mean_anomaly": 257.0436,
        "meta_ephemeris_type": 0,
        "meta_classification_type": "U",
        "meta_norad_cat_id": 56232,
        "meta_element_set_no": 999,
        "meta_rev_at_epoch": 14956,
        "meta_bstar": 0.00061631893,
        "meta_mean_motion_dot": 0.00038675,
        "meta_mean_motion_ddot": 0,
        "tle_line1": "1 56232U 23055A   25337.33151420  .00038675  00000+0  61632-3 0  9991",
        "tle_line2": "2 56232  49.9946 275.9737 0009239 103.1563 257.0436 15.52770913149565"
      },
      "geometry": {
        "type": "Point",
        "coordinates": [
          -66.45216337396248,
          21.44191485736138
        ]
      }
    },
    {
      "type": "Feature",
      "properties": {
        "norad_id": 57166,
        "name": "METEOR-M2 3",
        "group": "weather",
        "lat": 21.527723575115452,
        "lon": -145.20588760131014,
        "alt_km": 813.3584943700307,
        "timestamp": "2025-12-03T15:48:02.748571+00:00",
        "meta_object_name": "METEOR-M2 3",
        "meta_object_id": "2023-091A",
        "meta_epoch": "2025-12-03T08:18:56.704896",
        "meta_mean_motion": 14.24024229,
        "meta_eccentricity": 0.00044068,
        "meta_inclination": 98.6393,
        "meta_ra_of_asc_node": 31.0494,
        "meta_arg_of_pericenter": 33.9764,
        "meta_mean_anomaly": 326.1696,
        "meta_ephemeris_type": 0,
        "meta_classification_type": "U",
        "meta_norad_cat_id": 57166,
        "meta_element_set_no": 999,
        "meta_rev_at_epoch": 12664,
        "meta_bstar": 4.1251597e-05,
        "meta_mean_motion_dot": 5.1e-07,
        "meta_mean_motion_ddot": 0,
        "tle_line1": "1 57166U 23091A   25337.34648964  .00000051  00000+0  41252-4 0  9997",
        "tle_line2": "2 57166  98.6393  31.0494 0004406  33.9764 326.1696 14.24024229126644"
      },
      "geometry": {
        "type": "Point",
        "coordinates": [
          -145.20588760131014,
          21.527723575115452
        ]
      }
    },
    {
      "type": "Feature",
      "properties": {
        "norad_id": 57399,
        "name": "TIANMU-1 07",
        "group": "weather",
        "lat": -12.736536801654518,
        "lon": -153.9480225507417,
        "alt_km": 486.71344909065556,
        "timestamp": "2025-12-03T15:48:02.748581+00:00",
        "meta_object_name": "TIANMU-1 07",
        "meta_object_id": "2023-101A",
        "meta_epoch": "2025-12-03T07:06:04.255776",
        "meta_mean_motion": 15.27851331,
        "meta_eccentricity": 0.000559,
        "meta_inclination": 97.2896,
        "meta_ra_of_asc_node": 27.3555,
        "meta_arg_of_pericenter": 105.4526,
        "meta_mean_anomaly": 254.7332,
        "meta_ephemeris_type": 0,
        "meta_classification_type": "U",
        "meta_norad_cat_id": 57399,
        "meta_element_set_no": 999,
        "meta_rev_at_epoch": 13171,
        "meta_bstar": 0.00037440233,
        "meta_mean_motion_dot": 0.00010117,
        "meta_mean_motion_ddot": 0,
        "tle_line1": "1 57399U 23101A   25337.29588259  .00010117  00000+0  37440-3 0  9998",
        "tle_line2": "2 57399  97.2896  27.3555 0005590 105.4526 254.7332 15.27851331131710"
      },
      "geometry": {
        "type": "Point",
        "coordinates": [
          -153.9480225507417,
          -12.736536801654518
        ]
      }
    }
  ]
}